CCSDS_OMM_VERS = 2.0
CREATION_DATE  = 
ORIGINATOR     = 

OBJECT_NAME    = STARLINK-36719
OBJECT_ID      = 2026-022A
CENTER_NAME    = EARTH
REF_FRAME      = TEME
TIME_SYSTEM    = UTC
MEAN_ELEMENT_THEORY = SGP/SGP4

EPOCH          = 2026-03-04T01:44:01.619808
MEAN_MOTION    = 15.75276025
ECCENTRICITY   = .0002136
INCLINATION    = 97.2828
RA_OF_ASC_NODE = 96.7563
ARG_OF_PERICENTER = 132.4128
MEAN_ANOMALY   = 227.7318

EPHEMERIS_TYPE = 0
CLASSIFICATION_TYPE = U
NORAD_CAT_ID   = 67648
ELEMENT_SET_NO = 999
REV_AT_EPOCH   = 466
BSTAR          = .14167E-2
MEAN_MOTION_DOT = .21746E-2
MEAN_MOTION_DDOT = 0

CCSDS_OMM_VERS = 2.0
CREATION_DATE  = 
ORIGINATOR     = 

OBJECT_NAME    = STARLINK-36342
OBJECT_ID      = 2026-022B
CENTER_NAME    = EARTH
REF_FRAME      = TEME
TIME_SYSTEM    = UTC
MEAN_ELEMENT_THEORY = SGP/SGP4

EPOCH          = 2026-03-04T01:43:00.631776
MEAN_MOTION    = 15.75288231
ECCENTRICITY   = .0001241
INCLINATION    = 97.2832
RA_OF_ASC_NODE = 96.7597
ARG_OF_PERICENTER = 143.0086
MEAN_ANOMALY   = 217.1265

EPHEMERIS_TYPE = 0
CLASSIFICATION_TYPE = U
NORAD_CAT_ID   = 67649
ELEMENT_SET_NO = 999
REV_AT_EPOCH   = 466
BSTAR          = .12878E-2
MEAN_MOTION_DOT = .197296E-2
MEAN_MOTION_DDOT = 0

CCSDS_OMM_VERS = 2.0
CREATION_DATE  = 
ORIGINATOR     = 

OBJECT_NAME    = STARLINK-36703
OBJECT_ID      = 2026-022C
CENTER_NAME    = EARTH
REF_FRAME      = TEME
TIME_SYSTEM    = UTC
MEAN_ELEMENT_THEORY = SGP/SGP4

EPOCH          = 2026-03-04T01:41:29.607648
MEAN_MOTION    = 15.75307542
ECCENTRICITY   = .0002102
INCLINATION    = 97.2834
RA_OF_ASC_NODE = 96.7592
ARG_OF_PERICENTER = 91.3875
MEAN_ANOMALY   = 268.7631

EPHEMERIS_TYPE = 0
CLASSIFICATION_TYPE = U
NORAD_CAT_ID   = 67650
ELEMENT_SET_NO = 999
REV_AT_EPOCH   = 466
BSTAR          = .17884E-2
MEAN_MOTION_DOT = .27686E-2
MEAN_MOTION_DDOT = 0

CCSDS_OMM_VERS = 2.0
CREATION_DATE  = 
ORIGINATOR     = 

OBJECT_NAME    = STARLINK-36696
OBJECT_ID      = 2026-022D
CENTER_NAME    = EARTH
REF_FRAME      = TEME
TIME_SYSTEM    = UTC
MEAN_ELEMENT_THEORY = SGP/SGP4

EPOCH          = 2026-03-04T01:38:56.901696
MEAN_MOTION    = 15.75288271
ECCENTRICITY   = .000172
INCLINATION    = 97.2826
RA_OF_ASC_NODE = 96.7615
ARG_OF_PERICENTER = 115.6383
MEAN_ANOMALY   = 244.5060

EPHEMERIS_TYPE = 0
CLASSIFICATION_TYPE = U
NORAD_CAT_ID   = 67651
ELEMENT_SET_NO = 999
REV_AT_EPOCH   = 466
BSTAR          = .16618E-2
MEAN_MOTION_DOT = .25641E-2
MEAN_MOTION_DDOT = 0

CCSDS_OMM_VERS = 2.0
CREATION_DATE  = 
ORIGINATOR     = 

OBJECT_NAME    = STARLINK-36699
OBJECT_ID      = 2026-022E
CENTER_NAME    = EARTH
REF_FRAME      = TEME
TIME_SYSTEM    = UTC
MEAN_ELEMENT_THEORY = SGP/SGP4

EPOCH          = 2026-03-04T01:37:55.819488
MEAN_MOTION    = 15.75270274
ECCENTRICITY   = .0001919
INCLINATION    = 97.2835
RA_OF_ASC_NODE = 96.7637
ARG_OF_PERICENTER = 141.5653
MEAN_ANOMALY   = 218.5749

EPHEMERIS_TYPE = 0
CLASSIFICATION_TYPE = U
NORAD_CAT_ID   = 67652
ELEMENT_SET_NO = 999
REV_AT_EPOCH   = 466
BSTAR          = .11718E-2
MEAN_MOTION_DOT = .17898E-2
MEAN_MOTION_DDOT = 0

CCSDS_OMM_VERS = 2.0
CREATION_DATE  = 
ORIGINATOR     = 

OBJECT_NAME    = STARLINK-36694
OBJECT_ID      = 2026-022F
CENTER_NAME    = EARTH
REF_FRAME      = TEME
TIME_SYSTEM    = UTC
MEAN_ELEMENT_THEORY = SGP/SGP4

EPOCH          = 2026-03-04T01:34:53.302080
MEAN_MOTION    = 15.75277610
ECCENTRICITY   = .0001216
INCLINATION    = 97.2854
RA_OF_ASC_NODE = 96.7655
ARG_OF_PERICENTER = 40.5545
MEAN_ANOMALY   = 319.5810

EPHEMERIS_TYPE = 0
CLASSIFICATION_TYPE = U
NORAD_CAT_ID   = 67653
ELEMENT_SET_NO = 999
REV_AT_EPOCH   = 466
BSTAR          = .12313E-2
MEAN_MOTION_DOT = .188351E-2
MEAN_MOTION_DDOT = 0

CCSDS_OMM_VERS = 2.0
CREATION_DATE  = 
ORIGINATOR     = 

OBJECT_NAME    = STARLINK-36620
OBJECT_ID      = 2026-022G
CENTER_NAME    = EARTH
REF_FRAME      = TEME
TIME_SYSTEM    = UTC
MEAN_ELEMENT_THEORY = SGP/SGP4

EPOCH          = 2026-03-04T01:34:22.616256
MEAN_MOTION    = 15.75394622
ECCENTRICITY   = .0001471
INCLINATION    = 97.2821
RA_OF_ASC_NODE = 96.7641
ARG_OF_PERICENTER = 156.9941
MEAN_ANOMALY   = 203.1390

EPHEMERIS_TYPE = 0
CLASSIFICATION_TYPE = U
NORAD_CAT_ID   = 67654
ELEMENT_SET_NO = 999
REV_AT_EPOCH   = 466
BSTAR          = .28524E-2
MEAN_MOTION_DOT = .452662E-2
MEAN_MOTION_DDOT = 0

CCSDS_OMM_VERS = 2.0
CREATION_DATE  = 
ORIGINATOR     = 

OBJECT_NAME    = STARLINK-36720
OBJECT_ID      = 2026-022H
CENTER_NAME    = EARTH
REF_FRAME      = TEME
TIME_SYSTEM    = UTC
MEAN_ELEMENT_THEORY = SGP/SGP4

EPOCH          = 2026-03-04T01:31:50.185056
MEAN_MOTION    = 15.75282701
ECCENTRICITY   = .0001986
INCLINATION    = 97.2833
RA_OF_ASC_NODE = 96.7681
ARG_OF_PERICENTER = 124.1506
MEAN_ANOMALY   = 235.9947

EPHEMERIS_TYPE = 0
CLASSIFICATION_TYPE = U
NORAD_CAT_ID   = 67655
ELEMENT_SET_NO = 999
REV_AT_EPOCH   = 466
BSTAR          = .14332E-2
MEAN_MOTION_DOT = .220121E-2
MEAN_MOTION_DDOT = 0

CCSDS_OMM_VERS = 2.0
CREATION_DATE  = 
ORIGINATOR     = 

OBJECT_NAME    = STARLINK-36688
OBJECT_ID      = 2026-022J
CENTER_NAME    = EARTH
REF_FRAME      = TEME
TIME_SYSTEM    = UTC
MEAN_ELEMENT_THEORY = SGP/SGP4

EPOCH          = 2026-03-04T01:30:49.330944
MEAN_MOTION    = 15.75260220
ECCENTRICITY   = .0000718
INCLINATION    = 97.2845
RA_OF_ASC_NODE = 96.7685
ARG_OF_PERICENTER = 22.4983
MEAN_ANOMALY   = 337.6314

EPHEMERIS_TYPE = 0
CLASSIFICATION_TYPE = U
NORAD_CAT_ID   = 67656
ELEMENT_SET_NO = 999
REV_AT_EPOCH   = 466
BSTAR          = .14425E-2
MEAN_MOTION_DOT = .221364E-2
MEAN_MOTION_DDOT = 0

CCSDS_OMM_VERS = 2.0
CREATION_DATE  = 
ORIGINATOR     = 

OBJECT_NAME    = STARLINK-36706
OBJECT_ID      = 2026-022K
CENTER_NAME    = EARTH
REF_FRAME      = TEME
TIME_SYSTEM    = UTC
MEAN_ELEMENT_THEORY = SGP/SGP4

EPOCH          = 2026-03-04T01:28:47.310816
MEAN_MOTION    = 15.75306394
ECCENTRICITY   = .0001621
INCLINATION    = 97.2838
RA_OF_ASC_NODE = 96.7701
ARG_OF_PERICENTER = 106.6295
MEAN_ANOMALY   = 253.5149

EPHEMERIS_TYPE = 0
CLASSIFICATION_TYPE = U
NORAD_CAT_ID   = 67657
ELEMENT_SET_NO = 999
REV_AT_EPOCH   = 466
BSTAR          = .15782E-2
MEAN_MOTION_DOT = .243315E-2
MEAN_MOTION_DDOT = 0

CCSDS_OMM_VERS = 2.0
CREATION_DATE  = 
ORIGINATOR     = 

OBJECT_NAME    = STARLINK-36701
OBJECT_ID      = 2026-022L
CENTER_NAME    = EARTH
REF_FRAME      = TEME
TIME_SYSTEM    = UTC
MEAN_ELEMENT_THEORY = SGP/SGP4

EPOCH          = 2026-03-04T01:27:16.029216
MEAN_MOTION    = 15.75375275
ECCENTRICITY   = .0002193
INCLINATION    = 97.2825
RA_OF_ASC_NODE = 96.7738
ARG_OF_PERICENTER = 146.8047
MEAN_ANOMALY   = 213.3356

EPHEMERIS_TYPE = 0
CLASSIFICATION_TYPE = U
NORAD_CAT_ID   = 67658
ELEMENT_SET_NO = 999
REV_AT_EPOCH   = 466
BSTAR          = .26329E-2
MEAN_MOTION_DOT = .415625E-2
MEAN_MOTION_DDOT = 0

CCSDS_OMM_VERS = 2.0
CREATION_DATE  = 
ORIGINATOR     = 

OBJECT_NAME    = STARLINK-36642
OBJECT_ID      = 2026-022M
CENTER_NAME    = EARTH
REF_FRAME      = TEME
TIME_SYSTEM    = UTC
MEAN_ELEMENT_THEORY = SGP/SGP4

EPOCH          = 2026-03-04T01:25:44.039136
MEAN_MOTION    = 15.75317258
ECCENTRICITY   = .0001522
INCLINATION    = 97.2843
RA_OF_ASC_NODE = 96.7734
ARG_OF_PERICENTER = 123.3491
MEAN_ANOMALY   = 236.7920

EPHEMERIS_TYPE = 0
CLASSIFICATION_TYPE = U
NORAD_CAT_ID   = 67659
ELEMENT_SET_NO = 999
REV_AT_EPOCH   = 466
BSTAR          = .17338E-2
MEAN_MOTION_DOT = .268245E-2
MEAN_MOTION_DDOT = 0

